start=new Date('2022-08-08T00:00:00.000Z').valueOf();
sats=[{"TLE_LINE1":"1 47866U 21021G   22219.83038523  .00001364  00000-0  11044-3 0  9992","FILE":"3531552","REV_AT_EPOCH":"7892","DECAY_DATE":null,"INCLINATION":"53.0554","COUNTRY_CODE":"US","OBJECT_NAME":"STARLINK-2320","ARG_OF_PERICENTER":"83.2066","OBJECT_ID":"2021-021G","MEAN_MOTION_DDOT":"0.0000000000000","CLASSIFICATION_TYPE":"U","RCS_SIZE":"LARGE","SEMIMAJOR_AXIS":"6925.335","MEAN_MOTION_DOT":"0.00001364","EPOCH":"2022-08-07T19:55:45.283872","GP_ID":"209792451","ECCENTRICITY":"0.00014820","MEAN_ANOMALY":"276.9091","PERIAPSIS":"546.174","MEAN_ELEMENT_THEORY":"SGP4","REF_FRAME":"TEME","TLE_LINE2":"2 47866  53.0554  31.8149 0001482  83.2066 276.9091 15.06404415 78921","MEAN_MOTION":"15.06404415","TIME_SYSTEM":"UTC","NORAD_CAT_ID":"47866","APOAPSIS":"548.226","OBJECT_TYPE":"PAYLOAD","LAUNCH_DATE":"2021-03-14","PERIOD":"95.592","CENTER_NAME":"EARTH","ELEMENT_SET_NO":"999","EPHEMERIS_TYPE":"0","RA_OF_ASC_NODE":"31.8149","SITE":"AFETR","BSTAR":"0.00011044000000"},{"PERIAPSIS":"546.136","MEAN_ELEMENT_THEORY":"SGP4","EPOCH":"2022-08-07T21:22:01.415424","MEAN_ANOMALY":"270.0856","GP_ID":"209793198","ECCENTRICITY":"0.00015210","RCS_SIZE":"LARGE","SEMIMAJOR_AXIS":"6925.324","MEAN_MOTION_DOT":"0.00005049","OBJECT_ID":"2021-021H","MEAN_MOTION_DDOT":"0.0000000000000","CLASSIFICATION_TYPE":"U","INCLINATION":"53.0566","COUNTRY_CODE":"US","OBJECT_NAME":"STARLINK-2321","ARG_OF_PERICENTER":"90.0308","REV_AT_EPOCH":"7887","DECAY_DATE":null,"TLE_LINE1":"1 47867U 21021H   22219.89029416  .00005049  00000-0  35751-3 0  9995","FILE":"3531552","EPHEMERIS_TYPE":"0","RA_OF_ASC_NODE":"21.5462","BSTAR":"0.00035751000000","SITE":"AFETR","ELEMENT_SET_NO":"999","LAUNCH_DATE":"2021-03-14","PERIOD":"95.592","CENTER_NAME":"EARTH","NORAD_CAT_ID":"47867","APOAPSIS":"548.242","OBJECT_TYPE":"PAYLOAD","MEAN_MOTION":"15.06408038","TIME_SYSTEM":"UTC","REF_FRAME":"TEME","TLE_LINE2":"2 47867  53.0566  21.5462 0001521  90.0308 270.0856 15.06408038 78871"},{"OBJECT_TYPE":"PAYLOAD","APOAPSIS":"548.121","NORAD_CAT_ID":"47868","CENTER_NAME":"EARTH","PERIOD":"95.592","LAUNCH_DATE":"2021-03-14","ELEMENT_SET_NO":"999","BSTAR":"0.00013289000000","SITE":"AFETR","RA_OF_ASC_NODE":"332.4733","EPHEMERIS_TYPE":"0","TLE_LINE2":"2 47868  53.0568 332.4733 0001287  92.7970 267.3166 15.06394694 79597","REF_FRAME":"TEME","TIME_SYSTEM":"UTC","MEAN_MOTION":"15.06394694","CLASSIFICATION_TYPE":"U","MEAN_MOTION_DDOT":"0.0000000000000","OBJECT_ID":"2021-021J","MEAN_MOTION_DOT":"0.00001698","SEMIMAJOR_AXIS":"6925.365","RCS_SIZE":"LARGE","GP_ID":"209793438","ECCENTRICITY":"0.00012870","MEAN_ANOMALY":"267.3166","EPOCH":"2022-08-07T16:26:06.766656","MEAN_ELEMENT_THEORY":"SGP4","PERIAPSIS":"546.339","FILE":"3531552","TLE_LINE1":"1 47868U 21021J   22219.68480054  .00001698  00000-0  13289-3 0  9990","DECAY_DATE":null,"REV_AT_EPOCH":"7959","ARG_OF_PERICENTER":"92.7970","COUNTRY_CODE":"US","OBJECT_NAME":"STARLINK-2323","INCLINATION":"53.0568"},{"REF_FRAME":"TEME","TLE_LINE2":"2 47869  53.0543  21.8530 0001598  98.4122 261.7048 15.06398931 79014","MEAN_MOTION":"15.06398931","TIME_SYSTEM":"UTC","LAUNCH_DATE":"2021-03-14","CENTER_NAME":"EARTH","PERIOD":"95.592","NORAD_CAT_ID":"47869","APOAPSIS":"548.324","OBJECT_TYPE":"PAYLOAD","EPHEMERIS_TYPE":"0","RA_OF_ASC_NODE":"21.8530","SITE":"AFETR","BSTAR":"0.00009087000000","ELEMENT_SET_NO":"999","TLE_LINE1":"1 47869U 21021K   22219.82025407  .00001072  00000-0  90870-4 0  9992","FILE":"3531552","COUNTRY_CODE":"US","OBJECT_NAME":"STARLINK-2324","INCLINATION":"53.0543","ARG_OF_PERICENTER":"98.4122","REV_AT_EPOCH":"7901","DECAY_DATE":null,"RCS_SIZE":"LARGE","SEMIMAJOR_AXIS":"6925.352","MEAN_MOTION_DOT":"0.00001072","OBJECT_ID":"2021-021K","MEAN_MOTION_DDOT":"0.0000000000000","CLASSIFICATION_TYPE":"U","PERIAPSIS":"546.110","MEAN_ELEMENT_THEORY":"SGP4","EPOCH":"2022-08-07T19:41:09.951648","GP_ID":"209792201","ECCENTRICITY":"0.00015980","MEAN_ANOMALY":"261.7048"},{"ECCENTRICITY":"0.00015970","GP_ID":"209792952","MEAN_ANOMALY":"283.5338","EPOCH":"2022-08-07T21:42:34.730496","PERIAPSIS":"546.083","MEAN_ELEMENT_THEORY":"SGP4","CLASSIFICATION_TYPE":"U","OBJECT_ID":"2021-021L","MEAN_MOTION_DDOT":"0.0000000000000","SEMIMAJOR_AXIS":"6925.324","MEAN_MOTION_DOT":"0.00001847","RCS_SIZE":"MEDIUM","REV_AT_EPOCH":"7846","DECAY_DATE":null,"INCLINATION":"53.0559","COUNTRY_CODE":"US","OBJECT_NAME":"STARLINK-2326","ARG_OF_PERICENTER":"76.5829","TLE_LINE1":"1 47870U 21021L   22219.90456864  .00001847  00000-0  14286-3 0  9994","FILE":"3531552","ELEMENT_SET_NO":"999","SITE":"AFETR","BSTAR":"0.00014286000000","EPHEMERIS_TYPE":"0","RA_OF_ASC_NODE":"46.4708","OBJECT_TYPE":"PAYLOAD","APOAPSIS":"548.295","NORAD_CAT_ID":"47870","CENTER_NAME":"EARTH","PERIOD":"95.592","LAUNCH_DATE":"2021-03-14","MEAN_MOTION":"15.06407921","TIME_SYSTEM":"UTC","TLE_LINE2":"2 47870  53.0559  46.4708 0001597  76.5829 283.5338 15.06407921 78465","REF_FRAME":"TEME"},{"MEAN_MOTION_DDOT":"0.0000000000000","OBJECT_ID":"2021-021M","CLASSIFICATION_TYPE":"U","RCS_SIZE":"LARGE","MEAN_MOTION_DOT":"0.00000378","SEMIMAJOR_AXIS":"6925.375","EPOCH":"2022-08-07T18:00:19.772640","ECCENTRICITY":"0.00013820","GP_ID":"209793699","MEAN_ANOMALY":"278.3935","MEAN_ELEMENT_THEORY":"SGP4","PERIAPSIS":"546.283","FILE":"3531552","TLE_LINE1":"1 47871U 21021M   22219.75022885  .00000378  00000-0  44277-4 0  9992","DECAY_DATE":null,"REV_AT_EPOCH":"7889","ARG_OF_PERICENTER":"81.7211","COUNTRY_CODE":"US","OBJECT_NAME":"STARLINK-2327","INCLINATION":"53.0558","NORAD_CAT_ID":"47871","APOAPSIS":"548.197","OBJECT_TYPE":"PAYLOAD","LAUNCH_DATE":"2021-03-14","CENTER_NAME":"EARTH","PERIOD":"95.593","ELEMENT_SET_NO":"999","EPHEMERIS_TYPE":"0","RA_OF_ASC_NODE":"22.1797","SITE":"AFETR","BSTAR":"0.00004427700000","REF_FRAME":"TEME","TLE_LINE2":"2 47871  53.0558  22.1797 0001382  81.7211 278.3935 15.06391448 78897","TIME_SYSTEM":"UTC","MEAN_MOTION":"15.06391448"},{"REF_FRAME":"TEME","TLE_LINE2":"2 47872  53.0521 304.9785 0009521 329.4234  30.6215 15.42167033 79977","TIME_SYSTEM":"UTC","MEAN_MOTION":"15.42167033","LAUNCH_DATE":"2021-03-14","PERIOD":"93.375","CENTER_NAME":"EARTH","APOAPSIS":"446.208","NORAD_CAT_ID":"47872","OBJECT_TYPE":"PAYLOAD","RA_OF_ASC_NODE":"304.9785","EPHEMERIS_TYPE":"0","SITE":"AFETR","BSTAR":"0.00023198000000","ELEMENT_SET_NO":"999","FILE":"3531314","TLE_LINE1":"1 47872U 21021N   22219.53126015  .00009709  00000-0  23198-3 0  9994","ARG_OF_PERICENTER":"329.4234","COUNTRY_CODE":"US","OBJECT_NAME":"STARLINK-2328","INCLINATION":"53.0521","DECAY_DATE":null,"REV_AT_EPOCH":"7997","RCS_SIZE":"LARGE","MEAN_MOTION_DOT":"0.00009709","SEMIMAJOR_AXIS":"6817.852","MEAN_MOTION_DDOT":"0.0000000000000","OBJECT_ID":"2021-021N","CLASSIFICATION_TYPE":"U","MEAN_ELEMENT_THEORY":"SGP4","PERIAPSIS":"433.226","EPOCH":"2022-08-07T12:45:00.876960","GP_ID":"209763035","ECCENTRICITY":"0.00095210","MEAN_ANOMALY":"30.6215"},{"EPOCH":"2022-08-07T20:44:51.153216","GP_ID":"209792702","ECCENTRICITY":"0.00014150","MEAN_ANOMALY":"269.4337","PERIAPSIS":"546.222","MEAN_ELEMENT_THEORY":"SGP4","OBJECT_ID":"2021-021P","MEAN_MOTION_DDOT":"0.0000000000000","CLASSIFICATION_TYPE":"U","RCS_SIZE":"LARGE","SEMIMAJOR_AXIS":"6925.337","MEAN_MOTION_DOT":"0.00000730","REV_AT_EPOCH":"7890","DECAY_DATE":null,"OBJECT_NAME":"STARLINK-2329","COUNTRY_CODE":"US","INCLINATION":"53.0556","ARG_OF_PERICENTER":"90.6814","TLE_LINE1":"1 47873U 21021P   22219.86448094  .00000730  00000-0  67894-4 0  9992","FILE":"3531552","ELEMENT_SET_NO":"999","EPHEMERIS_TYPE":"0","RA_OF_ASC_NODE":"21.6541","BSTAR":"0.00006789400000","SITE":"AFETR","NORAD_CAT_ID":"47873","APOAPSIS":"548.182","OBJECT_TYPE":"PAYLOAD","LAUNCH_DATE":"2021-03-14","PERIOD":"95.592","CENTER_NAME":"EARTH","MEAN_MOTION":"15.06403837","TIME_SYSTEM":"UTC","REF_FRAME":"TEME","TLE_LINE2":"2 47873  53.0556  21.6541 0001415  90.6814 269.4337 15.06403837 78908"},{"LAUNCH_DATE":"2021-03-14","PERIOD":"95.592","CENTER_NAME":"EARTH","APOAPSIS":"548.006","NORAD_CAT_ID":"47874","OBJECT_TYPE":"PAYLOAD","EPHEMERIS_TYPE":"0","RA_OF_ASC_NODE":"337.8154","SITE":"AFETR","BSTAR":"-0.00003929700000","ELEMENT_SET_NO":"999","REF_FRAME":"TEME","TLE_LINE2":"2 47874  53.0574 337.8154 0001188  60.8019 299.3089 15.06409826 79501","MEAN_MOTION":"15.06409826","TIME_SYSTEM":"UTC","RCS_SIZE":"LARGE","MEAN_MOTION_DOT":"-0.00000867","SEMIMAJOR_AXIS":"6925.318","OBJECT_ID":"2021-021Q","MEAN_MOTION_DDOT":"0.0000000000000","CLASSIFICATION_TYPE":"U","PERIAPSIS":"546.361","MEAN_ELEMENT_THEORY":"SGP4","EPOCH":"2022-08-07T14:36:38.049408","GP_ID":"209792452","ECCENTRICITY":"0.00011880","MEAN_ANOMALY":"299.3089","TLE_LINE1":"1 47874U 21021Q   22219.60877372 -.00000867  00000-0 -39297-4 0  9999","FILE":"3531552","COUNTRY_CODE":"US","INCLINATION":"53.0574","OBJECT_NAME":"STARLINK-2330","ARG_OF_PERICENTER":"60.8019","REV_AT_EPOCH":"7950","DECAY_DATE":null},{"TLE_LINE2":"2 47875  53.0553  31.7031 0001394 114.2920 245.8215 15.06407415 78820","REF_FRAME":"TEME","MEAN_MOTION":"15.06407415","TIME_SYSTEM":"UTC","OBJECT_TYPE":"PAYLOAD","APOAPSIS":"548.156","NORAD_CAT_ID":"47875","CENTER_NAME":"EARTH","PERIOD":"95.592","LAUNCH_DATE":"2021-03-14","ELEMENT_SET_NO":"999","SITE":"AFETR","BSTAR":"0.00024961000000","EPHEMERIS_TYPE":"0","RA_OF_ASC_NODE":"31.7031","TLE_LINE1":"1 47875U 21021R   22219.85619210  .00003439  00000-0  24961-3 0  9999","FILE":"3531552","REV_AT_EPOCH":"7882","DECAY_DATE":null,"COUNTRY_CODE":"US","INCLINATION":"53.0553","OBJECT_NAME":"STARLINK-2331","ARG_OF_PERICENTER":"114.2920","CLASSIFICATION_TYPE":"U","OBJECT_ID":"2021-021R","MEAN_MOTION_DDOT":"0.0000000000000","MEAN_MOTION_DOT":"0.00003439","SEMIMAJOR_AXIS":"6925.326","RCS_SIZE":"LARGE","GP_ID":"209793199","ECCENTRICITY":"0.00013940","MEAN_ANOMALY":"245.8215","EPOCH":"2022-08-07T20:32:54.997440","PERIAPSIS":"546.225","MEAN_ELEMENT_THEORY":"SGP4"}];
